TRITON-1                
1 39427U 13066M   26167.01252432  .00001289  00000+0  15992-3 0  9990
2 39427  97.8256  76.8471 0088445 237.8143 121.4470 14.81702130673916
GOMX-1                  
1 39430U 13066Q   26166.96028403  .00002046  00000+0  31070-3 0  9993
2 39430  97.6478   7.5008 0130168  81.4294 280.1638 14.69458242669733
CUBEBUG-2 (LO-74)       
1 39440U 13066AA  26166.85743361  .00004009  00000+0  37158-3 0  9993
2 39440  97.8907 115.8299 0058470  33.3376 327.1504 14.93752168676799
NEE-02 KRYSAOR          
1 39441U 13066AB  26166.52650132  .00002097  00000+0  23305-3 0  9995
2 39441  97.8894 105.7531 0067691  75.5305 285.3408 14.86612129675956
FUNCUBE-1 (AO-73)       
1 39444U 13066AE  26166.86333262  .00005834  00000+0  36316-3 0  9995
2 39444  97.8273 138.2815 0035539 205.5766 154.3706 15.09476684679464
UWE-3                   
1 39446U 13066AG  26166.41095872  .00003615  00000+0  31229-3 0  9993
2 39446  97.8693 122.4726 0047855 327.0614  32.7628 14.97011844677317
SMDC ONE 2.4            
1 39469U 13072H   26166.75311395  .00008145  00000+0  31528-3 0  9998
2 39469 120.4929 346.5474 0145126  17.5046 343.0962 15.18158876117618
COSMOS 2488 (RODNIK-S 7)
1 39483U 13076A   26166.99137655  .00000110  00000+0  72310-3 0  9997
2 39483  82.4822 169.4398 0020853  97.7665 262.5783 12.42906344565748
COSMOS 2489 (RODNIK-S 8)
1 39484U 13076B   26166.96655219  .00000044  00000+0  24261-3 0  9994
2 39484  82.4859 170.8335 0022669  97.7494 262.6161 12.42879821565798
COSMOS 2490 (RODNIK-S 9)
1 39485U 13076C   26166.93843994 -.00000015  00000+0 -17938-3 0  9994
2 39485  82.4805 168.9190 0022711 112.6892 247.6592 12.42878269565723
KAZEOSAT 1              
1 39731U 14024A   26166.91154020  .00000070  00000+0  34322-4 0  9991
2 39731  98.3212 239.3903 0001378  73.0522 287.0819 14.42079152638374
COSMOS 2496 (RODNIK-S *)
1 39761U 14028A   26166.89596740 -.00000009  00000+0 -13348-3 0  9992
2 39761  82.4450 109.5398 0021336  81.4975 278.8522 12.42878384547350
COSMOS 2497 (RODNIK-S *)
1 39762U 14028B   26166.95176167 -.00000072  00000+0 -59045-3 0  9991
2 39762  82.4497 111.1941 0021899  76.6362 283.7158 12.42893749547368
COSMOS 2498 (RODNIK-S *)
1 39763U 14028C   26166.92944869 -.00000116  00000+0 -90834-3 0  9991
2 39763  82.4458 109.6958 0022617  76.3257 284.0339 12.42979627547393
HODOYOSHI-4             
1 40011U 14033B   26166.95822788  .00001288  00000+0  14503-3 0  9991
2 40011  97.5448 351.8405 0022561 312.9360  46.9964 14.88128313648624
UNISAT-6                
1 40012U 14033C   26166.92307165  .00002388  00000+0  25960-3 0  9997
2 40012  97.7876 319.6570 0046292  73.3647 287.2645 14.88241155645971
DEIMOS-2                
1 40013U 14033D   26166.91037036  .00001125  00000+0  11146-3 0  9993
2 40013  97.5833  41.4446 0001510  46.6719 313.4627 14.93721453637537
BUGSAT-1 (TITA)         
1 40014U 14033E   26166.97986419  .00004949  00000+0  26229-3 0  9993
2 40014  98.0436 259.4576 0027933 182.3798 177.7305 15.15575612655656
SAUDISAT 4              
1 40016U 14033G   26166.96915447  .00000569  00000+0  81553-4 0  9993
2 40016  97.7580 313.1459 0046184  77.8398 282.7982 14.79543385645899
APRIZESAT 9             
1 40018U 14033J   26166.91799100  .00000595  00000+0  94848-4 0  9996
2 40018  97.9059 300.1476 0065591 203.2811 156.5424 14.74212989643375
BRITE-CA1 (TORONTO)     
1 40020U 14033L   26166.88272711  .00000607  00000+0  99044-4 0  9996
2 40020  97.9737 295.8347 0077232 281.2710  77.9825 14.72675112642028
