OBJECT_NAME,OBJECT_ID,EPOCH,MEAN_MOTION,ECCENTRICITY,INCLINATION,RA_OF_ASC_NODE,ARG_OF_PERICENTER,MEAN_ANOMALY,EPHEMERIS_TYPE,CLASSIFICATION_TYPE,NORAD_CAT_ID,ELEMENT_SET_NO,REV_AT_EPOCH,BSTAR,MEAN_MOTION_DOT,MEAN_MOTION_DDOT
TRITON-1,2013-066M,2026-06-16T00:18:02.101248,14.81702130,.00884457,97.8256,76.8471,237.8143,121.4470,0,U,39427,999,67391,.15992334E-3,.1289E-4,0
GOMX-1,2013-066Q,2026-06-15T23:02:48.540192,14.69458242,.01301684,97.6478,7.5008,81.4294,280.1638,0,U,39430,999,66973,.31069802E-3,.2046E-4,0
CUBEBUG-2 (LO-74),2013-066AA,2026-06-15T20:34:42.263904,14.93752168,.00584709,97.8907,115.8299,33.3376,327.1504,0,U,39440,999,67679,.37157935E-3,.4009E-4,0
NEE-02 KRYSAOR,2013-066AB,2026-06-15T12:38:09.714048,14.86612129,.00676919,97.8894,105.7531,75.5305,285.3408,0,U,39441,999,67595,.23304651E-3,.2097E-4,0
FUNCUBE-1 (AO-73),2013-066AE,2026-06-15T20:43:11.938368,15.09476684,.0035539,97.8273,138.2815,205.5766,154.3706,0,U,39444,999,67946,.36315864E-3,.5834E-4,0
UWE-3,2013-066AG,2026-06-15T09:51:46.833408,14.97011844,.00478551,97.8693,122.4726,327.0614,32.7628,0,U,39446,999,67731,.31228687E-3,.3615E-4,0
SMDC ONE 2.4,2013-072H,2026-06-15T18:04:29.045280,15.18158876,.01451268,120.4929,346.5474,17.5046,343.0962,0,U,39469,999,11761,.31528263E-3,.8145E-4,0
COSMOS 2488 (RODNIK-S 7),2013-076A,2026-06-15T23:47:34.933920,12.42906344,.00208538,82.4822,169.4398,97.7665,262.5783,0,U,39483,999,56574,.72310122E-3,.11E-5,0
COSMOS 2489 (RODNIK-S 8),2013-076B,2026-06-15T23:11:50.109216,12.42879821,.0022669,82.4859,170.8335,97.7494,262.6161,0,U,39484,999,56579,.24261236E-3,.44E-6,0
COSMOS 2490 (RODNIK-S 9),2013-076C,2026-06-15T22:31:21.210816,12.42878269,.00227115,82.4805,168.9190,112.6892,247.6592,0,U,39485,999,56572,-.17938457E-3,-.15E-6,0
KAZEOSAT 1,2014-024A,2026-06-15T21:52:37.073280,14.42079152,.00013788,98.3212,239.3903,73.0522,287.0819,0,U,39731,999,63837,.34321525E-4,.7E-6,0
COSMOS 2496 (RODNIK-S 10),2014-028A,2026-06-15T21:30:11.583360,12.42878384,.00213366,82.4450,109.5398,81.4975,278.8522,0,U,39761,999,54735,-.13348317E-3,-.9E-7,0
COSMOS 2497 (RODNIK-S 11),2014-028B,2026-06-15T22:50:32.208288,12.42893749,.00218993,82.4497,111.1941,76.6362,283.7158,0,U,39762,999,54736,-.5904528E-3,-.72E-6,0
COSMOS 2498 (RODNIK-S 12),2014-028C,2026-06-15T22:18:24.366816,12.42979627,.0022617,82.4458,109.6958,76.3257,284.0339,0,U,39763,999,54739,-.90834428E-3,-.116E-5,0
HODOYOSHI-4,2014-033B,2026-06-15T22:59:50.888832,14.88128313,.00225615,97.5448,351.8405,312.9360,46.9964,0,U,40011,999,64862,.14503007E-3,.1288E-4,0
UNISAT-6,2014-033C,2026-06-15T22:09:13.390560,14.88241155,.00462924,97.7876,319.6570,73.3647,287.2645,0,U,40012,999,64597,.25960333E-3,.2388E-4,0
DEIMOS-2,2014-033D,2026-06-15T21:50:55.999104,14.93721453,.00015103,97.5833,41.4446,46.6719,313.4627,0,U,40013,999,63753,.11146438E-3,.1125E-4,0
BUGSAT-1 (TITA),2014-033E,2026-06-15T23:31:00.266016,15.15575612,.00279336,98.0436,259.4576,182.3798,177.7305,0,U,40014,999,65565,.26228742E-3,.4949E-4,0
SAUDISAT 4,2014-033G,2026-06-15T23:15:34.946208,14.79543385,.00461846,97.7580,313.1459,77.8398,282.7982,0,U,40016,999,64589,.81552792E-4,.569E-5,0
APRIZESAT 9,2014-033J,2026-06-15T22:01:54.422400,14.74212989,.0065591,97.9059,300.1476,203.2811,156.5424,0,U,40018,999,64337,.94848349E-4,.595E-5,0
BRITE-CA1 (TORONTO),2014-033L,2026-06-15T21:11:07.622304,14.72675112,.00772325,97.9737,295.8347,281.2710,77.9825,0,U,40020,999,64202,.99044044E-4,.607E-5,0
